#cP2021  1 31  0  0  0.00000000      96   u+U IGb14 FIT  GFZ                    
## 2143      0.00000000   900.00000000 59245 0.0000000000000                    
+   50   G01G02G03G04G05G06G07G08G09G10G11G12G13G14G15G16G17                    
+        G18G19G20G21G22G23G24G25G26G27G28G29G30G31G32R01R02                    
+        R03R05R07R08R12R13R14R15R16R17R18R19R20R21R22R24 00                    
+         00 00 00 00 00 00 00 00 00 00 00 00 00 00 00 00 00                    
+         00 00 00 00 00 00 00 00 00 00 00 00 00 00 00 00 00                    
++         5  6  5  7  5  5  5  7  5  5  9  6  7  5  6  6  8                    
++         6  6  6  7  5  9  5  5  5  5  9  5  5  6  6 10  7                    
++         5  8  6  5  9  9  5  6  8  7  6 10  8  6 10  5  0                    
++         0  0  0  0  0  0  0  0  0  0  0  0  0  0  0  0  0                    
++         0  0  0  0  0  0  0  0  0  0  0  0  0  0  0  0  0                    
%c M  cc GPS ccc cccc cccc cccc cccc ccccc ccccc ccccc ccccc                    
%c cc cc ccc ccc cccc cccc cccc cccc ccccc ccccc ccccc ccccc                    
%f  1.2500000  1.025000000  0.00000000000  0.000000000000000                    
%f  0.0000000  0.000000000  0.00000000000  0.000000000000000                    
%i    0    0    0    0      0      0      0      0         0                    
%i    0    0    0    0      0      0      0      0         0                    
/* PCV:IGS14_2136 OL/AL:FES2004  NONE     YN CLK:CoN ORB:CoN                    
/*     GeoForschungsZentrum Potsdam                                             
/*                                                                              
/*                                                                              
*  2021  1 31  2 15  0.00000000                                                 
PG01  17132.140924   5790.722874  19331.242866    770.613302                    
PG02 -13947.811505 -22540.737466   -801.297940   -571.775690                    
PG03  18746.064835  -6341.085436  17584.805300    -70.250565                    
PG04  26496.964228   1321.057181  -1755.584412   -176.768071                    
PG05  -9899.090505 -12630.607537 -21289.991549    -32.402147                    
PG06  -4021.820499 -24030.617510  10578.973877     -3.957810                    
PG07  11581.480782 -10529.858426 -21066.832672     41.421240                    
PG08  25552.737465   5188.766471  -5831.566977     -8.536183                    
PG09  22043.789556  -7933.814625 -12595.251086   -318.223256                    
PG10 -10654.645237  23469.479688   5905.648415    -50.999070                    
PG11  23222.942565   9053.914457   8200.298916    -38.120488                    
PG12 -17688.478449   1309.356884  19472.468729      5.579321                    
PG13 -18821.183929 -13185.319163 -13559.655691     91.796114                    
PG14  13011.060997 -22760.603714   4228.851071     92.532472                    
PG15 -26062.497705  -2915.486702  -5630.474439   -172.691289                    
PG16   7268.531931  14132.842264 -21433.444068   -272.944611                    
PG17   6422.220136 -14018.684363  22057.044934    387.013814                    
PG18  -9501.950125  13534.393797 -20775.391859    344.738140                    
PG19  -2407.343134 -14998.046786  21516.765760    -44.859745                    
PG20 -15429.216071  20269.138328  -7065.352896    524.921386                    
PG21  19249.782315  12237.093104  14687.980217     91.459208                    
PG22  16231.699340   2651.839896  21028.169570   -688.502246                    
PG23 -16651.863563  20085.209399  -4890.217639    117.699600                    
PG24 -19085.470125  -9698.991792  15722.572731      2.972567                    
PG25 -18827.684269  15065.681235  10559.882213     70.707542                    
PG26   -412.387590  21754.268055 -15100.335454     37.848036                    
PG27  17042.716220  12298.568194 -16612.199813    -66.779770                    
PG28  11328.105347 -22877.204907   8232.900809    622.349795                    
PG29 -22835.262270   5321.601965 -12555.556574   -285.919006                    
PG30   3458.453937 -20717.690597 -16080.308426   -377.321702                    
PG31   5314.730039  24542.104895   7812.268835    -97.159670                    
PG32  -4570.674178  14943.737528  21553.078488     16.850099                    
PR01  -9988.711651  14665.933547  18329.562591     74.269195                    
PR02  11234.489980   6326.674149  22058.686326    465.054204                    
PR03  22604.803279  -4688.801923  10948.198270     30.078639                    
PR05   7905.608347 -13853.875064 -19906.174254     65.689188                    
PR07 -22742.748830   5072.884301 -10290.048360    -42.296672                    
PR08 -21024.368127  12979.671609   6345.931857    -57.142611                    
PR12  -2019.825910  25409.587438   -435.245345    201.064900                    
PR13   6423.692179  18463.455258 -16402.532516    -50.028746                    
PR14  11092.704367    246.201830 -22960.942016     60.458066                    
PR15   9242.905945 -17623.583978 -15946.723024    105.658092                    
PR16   1030.276277 -25524.421075   1319.937510    -10.767955                    
PR17  21086.857066   8622.197535  11453.934676    395.912140                    
PR18  12154.441770  -3535.208041  22177.121390     65.004774                    
PR19  -2291.427318 -13681.132337  21413.664500   -130.073548                    
PR20 -17703.256465 -17119.190161   6574.926886   -432.302607                    
PR21 -20791.255849  -8014.442844 -12430.903740   -184.207473                    
PR22 -11109.543421   4372.231847 -22532.994826    -95.324479                    
PR24  18252.362272  16851.521413  -5746.200377     29.751196                    
EOF                                     
